start=new Date('2022-03-21T00:00:00.000Z').valueOf();
sats=[{"PERIAPSIS":"546.195","TLE_LINE1":"1 48116U 21027AA  22079.80708984  .00000844  00000-0  75558-4 0  9996","APOAPSIS":"548.233","ARG_OF_PERICENTER":"71.5967","CLASSIFICATION_TYPE":"U","BSTAR":"0.00007555800000","OBJECT_TYPE":"PAYLOAD","NORAD_CAT_ID":"48116","MEAN_MOTION":"15.06399874","MEAN_MOTION_DDOT":"0.0000000000000","EPHEMERIS_TYPE":"0","OBJECT_ID":"2021-027AA","ELEMENT_SET_NO":"999","CENTER_NAME":"EARTH","MEAN_ANOMALY":"288.5181","INCLINATION":"53.0531","OBJECT_NAME":"STARLINK-2454","DECAY_DATE":null,"FILE":"3367488","ECCENTRICITY":"0.00014720","TLE_LINE2":"2 48116  53.0531 200.3860 0001472  71.5967 288.5181 15.06399874 53886","GP_ID":"199268253","TIME_SYSTEM":"UTC","SITE":"AFETR","LAUNCH_DATE":"2021-04-07","PERIOD":"95.592","EPOCH":"2022-03-20T19:22:12.562176","MEAN_MOTION_DOT":"0.00000844","RCS_SIZE":"LARGE","SEMIMAJOR_AXIS":"6925.349","RA_OF_ASC_NODE":"200.3860","MEAN_ELEMENT_THEORY":"SGP4","REF_FRAME":"TEME","REV_AT_EPOCH":"5388","COUNTRY_CODE":"US"},{"ARG_OF_PERICENTER":"81.1176","TLE_LINE1":"1 48117U 21027AB  22079.71310320  .00000176  00000-0  30677-4 0  9991","PERIAPSIS":"546.354","APOAPSIS":"548.015","CLASSIFICATION_TYPE":"U","OBJECT_TYPE":"PAYLOAD","BSTAR":"0.00003067700000","MEAN_MOTION_DDOT":"0.0000000000000","MEAN_MOTION":"15.06409480","NORAD_CAT_ID":"48117","ELEMENT_SET_NO":"999","EPHEMERIS_TYPE":"0","OBJECT_ID":"2021-027AB","CENTER_NAME":"EARTH","OBJECT_NAME":"STARLINK-2455","DECAY_DATE":null,"INCLINATION":"53.0545","MEAN_ANOMALY":"278.9949","TLE_LINE2":"2 48117  53.0545 180.8161 0001199  81.1176 278.9949 15.06409480 54154","FILE":"3367488","ECCENTRICITY":"0.00011990","TIME_SYSTEM":"UTC","SITE":"AFETR","GP_ID":"199267001","LAUNCH_DATE":"2021-04-07","PERIOD":"95.592","RCS_SIZE":"LARGE","MEAN_MOTION_DOT":"0.00000176","EPOCH":"2022-03-20T17:06:52.116480","SEMIMAJOR_AXIS":"6925.320","REV_AT_EPOCH":"5415","MEAN_ELEMENT_THEORY":"SGP4","RA_OF_ASC_NODE":"180.8161","REF_FRAME":"TEME","COUNTRY_CODE":"US"},{"ELEMENT_SET_NO":"999","EPHEMERIS_TYPE":"0","OBJECT_ID":"2021-027AC","CENTER_NAME":"EARTH","DECAY_DATE":null,"OBJECT_NAME":"STARLINK-2458","INCLINATION":"53.0542","MEAN_ANOMALY":"294.1947","TLE_LINE2":"2 48118  53.0542 180.4632 0001434  65.9191 294.1947 15.06410096 54164","FILE":"3367488","ECCENTRICITY":"0.00014340","ARG_OF_PERICENTER":"65.9191","APOAPSIS":"548.176","PERIAPSIS":"546.190","TLE_LINE1":"1 48118U 21027AC  22079.79050424  .00002506  00000-0  18703-3 0  9990","CLASSIFICATION_TYPE":"U","OBJECT_TYPE":"PAYLOAD","BSTAR":"0.00018703000000","MEAN_MOTION_DDOT":"0.0000000000000","MEAN_MOTION":"15.06410096","NORAD_CAT_ID":"48118","SEMIMAJOR_AXIS":"6925.318","REV_AT_EPOCH":"5416","REF_FRAME":"TEME","MEAN_ELEMENT_THEORY":"SGP4","RA_OF_ASC_NODE":"180.4632","COUNTRY_CODE":"US","TIME_SYSTEM":"UTC","SITE":"AFETR","GP_ID":"199267251","LAUNCH_DATE":"2021-04-07","PERIOD":"95.591","RCS_SIZE":"LARGE","EPOCH":"2022-03-20T18:58:19.566336","MEAN_MOTION_DOT":"0.00002506"},{"COUNTRY_CODE":"US","REV_AT_EPOCH":"5415","MEAN_ELEMENT_THEORY":"SGP4","RA_OF_ASC_NODE":"180.4767","REF_FRAME":"TEME","SEMIMAJOR_AXIS":"6925.313","RCS_SIZE":"LARGE","MEAN_MOTION_DOT":"0.00003974","EPOCH":"2022-03-20T18:53:02.024736","PERIOD":"95.591","LAUNCH_DATE":"2021-04-07","SITE":"AFETR","TIME_SYSTEM":"UTC","GP_ID":"199268003","TLE_LINE2":"2 48119  53.0541 180.4767 0001256  58.1799 301.9312 15.06411534 54153","ECCENTRICITY":"0.00012560","FILE":"3367488","OBJECT_NAME":"STARLINK-2459","DECAY_DATE":null,"MEAN_ANOMALY":"301.9312","INCLINATION":"53.0541","CENTER_NAME":"EARTH","ELEMENT_SET_NO":"999","EPHEMERIS_TYPE":"0","OBJECT_ID":"2021-027AD","MEAN_MOTION_DDOT":"0.0000000000000","NORAD_CAT_ID":"48119","MEAN_MOTION":"15.06411534","OBJECT_TYPE":"PAYLOAD","BSTAR":"0.00028543000000","CLASSIFICATION_TYPE":"U","ARG_OF_PERICENTER":"58.1799","TLE_LINE1":"1 48119U 21027AD  22079.78682899  .00003974  00000-0  28543-3 0  9990","PERIAPSIS":"546.308","APOAPSIS":"548.048"},{"PERIAPSIS":"546.380","TLE_LINE1":"1 48120U 21027AE  22079.59330711  .00000746  00000-0  68939-4 0  9992","APOAPSIS":"548.026","ARG_OF_PERICENTER":"79.5709","CLASSIFICATION_TYPE":"U","BSTAR":"0.00006893900000","OBJECT_TYPE":"PAYLOAD","MEAN_MOTION":"15.06403463","NORAD_CAT_ID":"48120","MEAN_MOTION_DDOT":"0.0000000000000","OBJECT_ID":"2021-027AE","EPHEMERIS_TYPE":"0","ELEMENT_SET_NO":"999","CENTER_NAME":"EARTH","MEAN_ANOMALY":"280.5414","INCLINATION":"53.0531","OBJECT_NAME":"STARLINK-2460","DECAY_DATE":null,"ECCENTRICITY":"0.00011890","FILE":"3367488","TLE_LINE2":"2 48120  53.0531 201.3590 0001189  79.5709 280.5414 15.06403463 53868","GP_ID":"199267754","TIME_SYSTEM":"UTC","SITE":"AFETR","LAUNCH_DATE":"2021-04-07","PERIOD":"95.592","MEAN_MOTION_DOT":"0.00000746","EPOCH":"2022-03-20T14:14:21.734304","RCS_SIZE":"LARGE","SEMIMAJOR_AXIS":"6925.338","RA_OF_ASC_NODE":"201.3590","MEAN_ELEMENT_THEORY":"SGP4","REF_FRAME":"TEME","REV_AT_EPOCH":"5386","COUNTRY_CODE":"US"},{"PERIOD":"95.592","RCS_SIZE":"LARGE","MEAN_MOTION_DOT":"0.00000862","EPOCH":"2022-03-20T15:08:46.256352","SITE":"AFETR","TIME_SYSTEM":"UTC","GP_ID":"199266502","LAUNCH_DATE":"2021-04-07","REV_AT_EPOCH":"5399","REF_FRAME":"TEME","MEAN_ELEMENT_THEORY":"SGP4","RA_OF_ASC_NODE":"191.1900","COUNTRY_CODE":"US","SEMIMAJOR_AXIS":"6925.322","OBJECT_TYPE":"PAYLOAD","BSTAR":"0.00007675100000","MEAN_MOTION_DDOT":"0.0000000000000","NORAD_CAT_ID":"48121","MEAN_MOTION":"15.06408574","ARG_OF_PERICENTER":"80.9717","APOAPSIS":"548.202","PERIAPSIS":"546.173","TLE_LINE1":"1 48121U 21027AF  22079.63109093  .00000862  00000-0  76751-4 0  9995","CLASSIFICATION_TYPE":"U","DECAY_DATE":null,"OBJECT_NAME":"STARLINK-2462","MEAN_ANOMALY":"279.1438","INCLINATION":"53.0536","TLE_LINE2":"2 48121  53.0536 191.1900 0001465  80.9717 279.1438 15.06408574 53999","FILE":"3367488","ECCENTRICITY":"0.00014650","ELEMENT_SET_NO":"999","OBJECT_ID":"2021-027AF","EPHEMERIS_TYPE":"0","CENTER_NAME":"EARTH"},{"NORAD_CAT_ID":"48122","MEAN_MOTION":"15.06414380","MEAN_MOTION_DDOT":"0.0000000000000","BSTAR":"0.00039976000000","OBJECT_TYPE":"PAYLOAD","CLASSIFICATION_TYPE":"U","APOAPSIS":"548.083","PERIAPSIS":"546.256","TLE_LINE1":"1 48122U 21027AG  22079.76513624  .00005680  00000-0  39976-3 0  9999","ARG_OF_PERICENTER":"63.7662","ECCENTRICITY":"0.00013190","FILE":"3367488","TLE_LINE2":"2 48122  53.0547 185.5856 0001319  63.7662 296.3462 15.06414380 54097","MEAN_ANOMALY":"296.3462","INCLINATION":"53.0547","DECAY_DATE":null,"OBJECT_NAME":"STARLINK-2463","CENTER_NAME":"EARTH","EPHEMERIS_TYPE":"0","OBJECT_ID":"2021-027AG","ELEMENT_SET_NO":"999","MEAN_MOTION_DOT":"0.00005680","EPOCH":"2022-03-20T18:21:47.771136","RCS_SIZE":"LARGE","PERIOD":"95.591","LAUNCH_DATE":"2021-04-07","GP_ID":"199266752","TIME_SYSTEM":"UTC","SITE":"AFETR","COUNTRY_CODE":"US","REF_FRAME":"TEME","RA_OF_ASC_NODE":"185.5856","MEAN_ELEMENT_THEORY":"SGP4","REV_AT_EPOCH":"5409","SEMIMAJOR_AXIS":"6925.304"},{"MEAN_MOTION_DOT":"0.00000244","EPOCH":"2022-03-20T18:31:47.676576","RCS_SIZE":"LARGE","PERIOD":"95.592","LAUNCH_DATE":"2021-04-07","GP_ID":"199267504","SITE":"AFETR","TIME_SYSTEM":"UTC","COUNTRY_CODE":"US","MEAN_ELEMENT_THEORY":"SGP4","RA_OF_ASC_NODE":"180.5471","REF_FRAME":"TEME","REV_AT_EPOCH":"5416","SEMIMAJOR_AXIS":"6925.351","NORAD_CAT_ID":"48123","MEAN_MOTION":"15.06399109","MEAN_MOTION_DDOT":"0.0000000000000","BSTAR":"0.00003524900000","OBJECT_TYPE":"PAYLOAD","CLASSIFICATION_TYPE":"U","PERIAPSIS":"546.300","TLE_LINE1":"1 48123U 21027AH  22079.77207959  .00000244  00000-0  35249-4 0  9993","APOAPSIS":"548.133","ARG_OF_PERICENTER":"75.5853","FILE":"3367488","ECCENTRICITY":"0.00013230","TLE_LINE2":"2 48123  53.0553 180.5471 0001323  75.5853 284.5282 15.06399109 54169","MEAN_ANOMALY":"284.5282","INCLINATION":"53.0553","OBJECT_NAME":"STARLINK-2464","DECAY_DATE":null,"CENTER_NAME":"EARTH","EPHEMERIS_TYPE":"0","OBJECT_ID":"2021-027AH","ELEMENT_SET_NO":"999"},{"APOAPSIS":"548.160","TLE_LINE1":"1 48124U 21027AJ  22079.77115622  .00007509  00000-0  52235-3 0  9993","PERIAPSIS":"546.218","ARG_OF_PERICENTER":"67.7967","CLASSIFICATION_TYPE":"U","BSTAR":"0.00052235000000","OBJECT_TYPE":"PAYLOAD","MEAN_MOTION":"15.06408132","NORAD_CAT_ID":"48124","MEAN_MOTION_DDOT":"0.0000000000000","EPHEMERIS_TYPE":"0","OBJECT_ID":"2021-027AJ","ELEMENT_SET_NO":"999","CENTER_NAME":"EARTH","MEAN_ANOMALY":"292.3171","INCLINATION":"53.0536","DECAY_DATE":null,"OBJECT_NAME":"STARLINK-2465","ECCENTRICITY":"0.00014020","FILE":"3367488","TLE_LINE2":"2 48124  53.0536 190.5665 0001402  67.7967 292.3171 15.06408132 54019","GP_ID":"199268254","TIME_SYSTEM":"UTC","SITE":"AFETR","LAUNCH_DATE":"2021-04-07","PERIOD":"95.592","MEAN_MOTION_DOT":"0.00007509","EPOCH":"2022-03-20T18:30:27.897408","RCS_SIZE":"LARGE","SEMIMAJOR_AXIS":"6925.324","REF_FRAME":"TEME","RA_OF_ASC_NODE":"190.5665","MEAN_ELEMENT_THEORY":"SGP4","REV_AT_EPOCH":"5401","COUNTRY_CODE":"US"},{"GP_ID":"199267002","SITE":"AFETR","TIME_SYSTEM":"UTC","LAUNCH_DATE":"2021-04-07","PERIOD":"95.592","EPOCH":"2022-03-20T15:06:04.753152","MEAN_MOTION_DOT":"0.00000094","RCS_SIZE":"LARGE","SEMIMAJOR_AXIS":"6925.326","REF_FRAME":"TEME","RA_OF_ASC_NODE":"201.1989","MEAN_ELEMENT_THEORY":"SGP4","REV_AT_EPOCH":"5386","COUNTRY_CODE":"US","APOAPSIS":"548.210","PERIAPSIS":"546.172","TLE_LINE1":"1 48125U 21027AK  22079.62922168  .00000094  00000-0  25200-4 0  9994","ARG_OF_PERICENTER":"72.9612","CLASSIFICATION_TYPE":"U","BSTAR":"0.00002520000000","OBJECT_TYPE":"PAYLOAD","MEAN_MOTION":"15.06407333","NORAD_CAT_ID":"48125","MEAN_MOTION_DDOT":"0.0000000000000","EPHEMERIS_TYPE":"0","OBJECT_ID":"2021-027AK","ELEMENT_SET_NO":"999","CENTER_NAME":"EARTH","MEAN_ANOMALY":"287.1538","INCLINATION":"53.0541","DECAY_DATE":null,"OBJECT_NAME":"STARLINK-2466","FILE":"3367488","ECCENTRICITY":"0.00014720","TLE_LINE2":"2 48125  53.0541 201.1989 0001472  72.9612 287.1538 15.06407333 53869"}];
